     2.10           N: GPS NAV DATA                         RINEX VERSION / TYPE
teqc  2009Mar23                         20140514 00:19:20UTCPGM / RUN BY / DATE
    16                                                      LEAP SECONDS
Linux 2.4.20-8|Pentium IV|gcc -static|Linux|486/DX+         COMMENT
teqc  2009Mar23                         20140513 01:05:02UTCCOMMENT
                                                            END OF HEADER
18 14  5 14  0  0  0.0 3.190659917891D-04 2.387423592154D-12 0.000000000000D+00
    2.300000000000D+01 2.190625000000D+01 4.904132848246D-09-1.954328272268D+00
    1.002103090286D-06 1.524281292222D-02 1.133047044277D-05 5.153693992615D+03
    2.592000000000D+05 3.073364496231D-07-4.114930703038D-01-1.173466444016D-07
    9.261630565803D-01 1.427187500000D+02-2.039902234390D+00-7.860684571922D-09
   -4.753769442150D-10 1.000000000000D+00 1.792000000000D+03 0.000000000000D+00
    2.000000000000D+00 0.000000000000D+00-1.117587089539D-08 2.300000000000D+01
    2.548800000000D+05 4.000000000000D+00
27 14  5 14  0  0  0.0-1.647928729653D-05 1.818989403546D-12 0.000000000000D+00
    1.700000000000D+01 3.643750000000D+01 4.681980737576D-09 2.819943206411D+00
    1.922249794006D-06 1.209571375512D-03 9.560957551003D-06 5.153670555115D+03
    2.592000000000D+05-3.166496753693D-08-2.500135789605D+00 2.607703208923D-08
    9.633564013981D-01 1.961562500000D+02 1.163742452144D-01-7.950688320939D-09
    6.803854836435D-10 1.000000000000D+00 1.792000000000D+03 0.000000000000D+00
    2.000000000000D+00 0.000000000000D+00 1.862645149231D-09 1.700000000000D+01
    2.542200000000D+05 4.000000000000D+00
22 14  5 14  0  0  0.0 2.340273931623D-04 2.842170943040D-12 0.000000000000D+00
    3.500000000000D+01 1.343750000000D+01 4.934134097919D-09-2.512293850140D+00
    6.239861249924D-07 7.193397264928D-03 1.173838973045D-05 5.153730245590D+03
    2.592000000000D+05 5.029141902924D-08-4.095826104740D-01-6.332993507385D-08
    9.239382098036D-01 1.337500000000D+02-2.058216704782D+00-7.969260523117D-09
   -4.968064082668D-10 1.000000000000D+00 1.792000000000D+03 0.000000000000D+00
    2.000000000000D+00 0.000000000000D+00-1.722946763039D-08 3.500000000000D+01
    2.570400000000D+05 4.000000000000D+00
24 14  5 14  0  0  0.0-2.832431346178D-05-5.684341886081D-13 0.000000000000D+00
    4.700000000000D+01-3.984375000000D+01 4.925205154564D-09 7.851633328615D-01
   -2.209097146988D-06 2.080200240016D-03 1.002103090286D-06 5.153733779907D+03
    2.592000000000D+05 3.911554813385D-08 1.681051478267D+00-1.303851604462D-08
    9.565968830827D-01 3.598125000000D+02 3.486945702428D-01-8.614644548810D-09
   -7.678891285216D-11 1.000000000000D+00 1.792000000000D+03 0.000000000000D+00
    2.000000000000D+00 0.000000000000D+00 2.793967723846D-09 4.700000000000D+01
    2.587200000000D+05 4.000000000000D+00
